C/2019 N1 (ATLAS),e,82.4269,13.5728,193.4460,36331,0.0000001,0.99995308,0.0000,12/01.7889/2020,2000,g  7.5,4.0
# From MPEC 2020-AA5
A/2019 O2,e,93.2860,48.3236,129.6761,57.38617,0.0022672,0.83129677,357.9393,10/11.0/2020,2000,g  9.5,2.0
# From MPC118843
A/2019 O3,h,03/07.8530/2021,89.8124,300.3790,60.0461,1.001966,8.818548,2000,10.0,2.0
# From MPC117072
A/2019 O4,e,115.0856,354.9194,61.8239,32.85019,0.0052348,0.88905135,1.2772,10/11.0/2020,2000,g 15.5,2.0
# From MPEC 2020-AA5
A/2019 Q1,h,07/19.9400/2020,155.7203,42.3385,55.9520,1.000505,4.996726,2000,12.5,2.0
# From MPC117072
A/2019 Q2,e,159.0200,188.0416,176.2985,57.46669,0.0022625,0.97813112,0.0000,07/22.3321/2019,2000,g 18.0,2.0
# From MPC117072
C/2019 Q3 (PANSTARRS),h,08/21.2689/2018,65.5278,151.3241,152.6719,1.004305,7.252613,2000,8.5,4.0
# From MPC117072
P/2019 S2 (PANSTARRS),e,10.4731,93.1284,216.8283,4.735708,0.0956372,0.20680635,57.1549,10/11.0/2020,2000,g 13.5,4.0
# From MPC118096
P/2019 S3 (PANSTARRS),e,8.6933,150.1615,212.9773,3.414588,0.1562056,0.47087763,64.3295,10/11.0/2020,2000,g 18.3,4.0
# From MPEC 2020-AA5
A/2019 S4,e,92.0238,63.1645,71.3614,235.2108,0.0002732,0.98536752,0.0000,04/07.9654/2020,2000,g 14.5,2.0
# From MPC118843
A/2019 T1,e,120.8695,6.9522,91.0192,38.26314,0.0041642,0.88810030,359.6036,10/11.0/2020,2000,g 13.0,2.0
# From MPEC 2020-AA5
A/2019 T2,e,111.4751,155.6385,239.3871,2643,0.0000073,0.99899898,0.0000,04/22.2619/2021,2000,g 12.5,2.0
# From MPC119998
C/2019 T3 (ATLAS),e,121.8626,139.5196,112.2681,5011,0.0000028,0.99881333,0.0000,03/02.5872/2021,2000,g  6.8,4.0
# From MPC119998
C/2019 T4 (ATLAS),e,53.6172,199.9618,351.2149,1007,0.0000308,0.99578876,0.0000,06/09.3728/2022,2000,g  5.0,4.0
# From MPC119998
P/2019 T5 (ATLAS),e,33.4250,247.6895,189.6008,8.010031,0.0434763,0.80918945,18.9940,10/11.0/2020,2000,g 15.0,4.0
# From MPC119998
P/2019 T6 (PANSTARRS),e,18.6953,71.3062,328.9070,5.434017,0.0778077,0.62243835,26.3169,10/11.0/2020,2000,g 15.5,4.0
# From MPC118096
P/2019 U4 (PANSTARRS),e,11.6910,200.0260,180.9659,3.520472,0.1492117,0.47540988,57.9859,10/11.0/2020,2000,g 19.0,4.0
# From MPC118844
A/2019 U5,h,03/30.2891/2023,113.5252,2.6856,181.6022,1.000665,3.621140,2000,10.0,2.0
# From MPEC 2020-AA5
C/2019 U6,e,61.0005,235.7046,329.6607,429.8838,0.0001106,0.99787328,0.0000,06/18.8224/2020,2000,g 14.5,2.0
# From MPC119998
C/2019 V1 (Borisov),e,61.8626,83.2036,51.1944,2134,0.0000100,0.99854881,0.0000,07/16.5502/2020,2000,g 11.0,4.0
# From MPC119998
P/2019 V2 (Groeller),e,11.8045,189.1626,336.3537,7.514298,0.0478488,0.33239669,359.4319,10/11.0/2020,2000,g 10.0,4.0
# From MPC119998
P/2019 W1 (PANSTARRS),e,23.4602,35.4081,18.7142,4.550458,0.1015363,0.26620828,53.0232,10/11.0/2020,2000,g 12.9,4.0
# From MPC119998
P/2019 X1 (Pruyne),e,10.2446,43.7068,36.6062,6.177460,0.0641932,0.30345174,28.8348,10/11.0/2020,2000,g 10.4,4.0
# From MPC119999
C/2019 Y1 (ATLAS),e,73.2541,31.5185,57.9757,86.23813,0.0012307,0.99035722,0.0000,03/15.5947/2020,2000,g 13.7,4.0
# From MPC119999
P/2019 Y2 (Fuls),e,4.9018,81.0812,91.7465,3.528996,0.1486713,0.39614041,37.8098,10/11.0/2020,2000,g 13.2,4.0
# From MPEC 2020-L06
C/2019 Y4 (ATLAS),e,45.3829,120.5719,177.3064,532.8824,0.0000801,0.99952539,0.0000,05/31.0583/2020,2000,g 11.8,6.0
# From MPEC 2020-L06
C/2019 Y4-A (ATLAS),h,05/31.0417/2020,45.8246,120.9282,177.2490,1.001340,0.251043,2000,11.6,6.0
# From MPEC 2020-L06
C/2019 Y4-B (ATLAS),e,45.4592,120.6240,177.3823,1075,0.0000279,0.99976514,0.0000,05/31.0204/2020,2000,g 12.8,6.0
# From MPEC 2020-L06
C/2019 Y4-C (ATLAS),h,05/30.9999/2020,45.6069,120.6538,177.2824,1.002058,0.252093,2000,12.7,6.0
# From MPEC 2020-L06
C/2019 Y4-D (ATLAS),e,45.6483,121.0345,177.4212,67.21289,0.0017886,0.99625828,0.0000,05/31.1170/2020,2000,g 12.5,6.0
# From MPEC 2020-L06
C/2020 A2 (Iwamoto),e,120.7487,286.3789,68.2123,1234,0.0000227,0.99920737,0.0000,01/08.3376/2020,2000,g 13.5,4.0
# From MPEC 2020-L06
C/2020 A3 (ATLAS),h,07/29.6220/2019,146.7769,120.3772,271.1656,1.024899,5.839471,2000,8.0,4.0
# From MPEC 2020-L06
C/2020 B3 (Rankin),e,20.7048,185.8263,325.0800,1571,0.0000158,0.99787137,0.0000,10/19.8143/2019,2000,g 13.0,4.0
# From MPEC 2020-L06
C/2020 F2 (ATLAS),h,07/16.6731/2022,163.5751,250.2506,48.3728,1.002444,8.816989,2000,4.5,4.0
# From MPEC 2020-L06
C/2020 F3 (NEOWISE),e,128.9350,61.0129,37.2711,369.7968,0.0001386,0.99920299,0.0000,07/03.6831/2020,2000,g 12.5,3.2
# From MPEC 2020-L06
C/2020 F5 (MASTER),h,03/23.9751/2021,51.7008,350.6277,311.0188,1.002127,4.326815,2000,6.5,3.2
# From MPEC 2020-L06
C/2020 F6 (PANSTARRS),e,174.5815,207.8810,344.5988,378.5174,0.0001338,0.99072425,0.0000,04/11.6020/2020,2000,g 14.5,2.8
# From MPEC 2020-L06
A/2020 F7,e,93.9509,321.8861,227.9898,782.4256,0.0000450,0.99318580,0.0000,11/14.1276/2021,2000,g 12.0,2.0
# From MPEC 2020-KB7
C/2020 F8 (SWAN),e,110.7939,260.0080,68.2224,273.9124,0.0002174,0.99842876,0.0000,05/27.5666/2020,2000,g 10.0,4.0
# From MPEC 2020-L06
P/2020 G1 (Pimentel),e,18.4770,240.0933,207.6636,3.611621,0.1435988,0.85992801,29.8096,10/11.0/2020,2000,g 17.0,4.0
# From MPEC 2020-L06
C/2020 H2 (Pruyne),e,125.0437,277.6360,26.6965,185.7766,0.0003892,0.99551258,0.0000,04/27.5923/2020,2000,g 18.0,4.0
# From MPEC 2020-HM1
C/2020 H3 (Wierzchos),p,06/05.7162/2020,62.5292,30.4456,2.300288,270.6227,2000,13.5,4.0
# From MPEC 2020-L06
C/2020 H4 (Leonard),e,84.5148,307.7367,117.6126,48.18877,0.0029464,0.98075864,0.0000,08/29.5181/2020,2000,g 15.0,3.2
# From MPEC 2020-L06
C/2020 H5 (Robinson),e,70.2474,210.6015,325.0642,1085,0.0000276,0.99136561,0.0000,11/14.8880/2020,2000,g  5.0,4.0
# From MPEC 2020-L06
C/2020 H6 (ATLAS),h,09/30.9376/2021,79.9629,213.6992,20.3112,1.000879,4.704810,2000,8.0,3.2
# From MPEC 2020-KB7
C/2020 H7 (Lemmon),e,135.9235,323.5194,82.6780,1405,0.0000187,0.99685380,0.0000,06/02.9510/2020,2000,g 11.0,4.0
# From MPEC 2020-KB7
C/2020 H8 (PANSTARRS),p,06/06.7207/2020,99.7116,129.2192,4.678446,68.3225,2000,10.5,4.0
# From MPEC 2020-L06
A/2020 H9,e,137.8697,213.1196,312.8805,522.7282,0.0000825,0.99506614,0.0000,12/21.3343/2019,2000,g 18.0,2.0
# From MPEC 2020-L06
C/2020 J1 (SONEAR),e,142.2975,226.5826,341.7080,492.9648,0.0000900,0.99318387,0.0000,04/19.3184/2021,2000,g  8.5,3.2
# From MPEC 2020-L06
C/2020 K1 (PANSTARRS),h,05/08.1283/2023,89.6518,94.3684,213.9044,1.000800,3.074906,2000,5.5,4.0
# From MPEC 2020-KF5
C/2020 K2 (PANSTARRS),p,12/30.6730/2018,89.7510,34.2348,8.177098,285.5819,2000,6.5,4.0
# From MPEC 2020-KF9
C/2020 K3 (Leonard),p,06/01.0032/2020,129.0152,64.4924,1.583069,28.3546,2000,14.5,4.0
# From MPEC 2020-L06
C/2020 K4 (PANSTARRS),e,125.5622,264.0945,308.7655,23.90175,0.0084345,0.92666590,1.8662,10/11.0/2020,2000,g 16.5,4.0
# From MPEC 2020-L06
C/2020 K5 (PANSTARRS),h,06/05.5992/2021,67.1652,86.1605,249.6041,1.001440,1.535330,2000,11.0,4.0
# From MPEC 2020-L06
C/2020 K6 (Rankin),h,08/26.0332/2021,103.8045,291.5644,41.6582,1.001136,5.993931,2000,8.0,4.0
# From MPEC 2020-L09
C/2020 K7 (PANSTARRS),p,10/05.3027/2021,34.5520,60.8413,5.644571,287.4776,2000,8.0,4.0
# From MPEC 2020-SN9
C/2020 S4 (PANSTARRS),p,02/08.6012/2023,20.5853,21.1875,3.366752,117.5524,2000,8.5,3.2
# From MPEC 2020-SO0
P/2020 S5 (PANSTARRS),e,12.3568,316.0159,53.0200,4.049332,0.1209564,0.33834389,7.6885,10/11.0/2020,2000,g 14.5,4.0
# From  98, 1083
1P/Halley,e,162.2910,58.3984,111.3369,17.87143,0.0130456,0.96616554,165.4008,10/11.0/2020,2000,g  4.0,6.0
# From MPC118097
2P/Encke,e,11.7654,334.5480,186.5680,2.215567,0.2988661,0.84802194,32.0242,10/11.0/2020,2000,g 11.5,6.0
# From MPEC 2015-A10
4P/Faye,e,8.0080,193.0593,206.8918,3.828441,0.1315743,0.57744475,316.1465,10/11.0/2020,2000,g  8.0,6.0
# From MPEC 2015-S97
6P/d'Arrest,e,19.5122,138.9345,178.0981,3.497565,0.1506799,0.61261734,308.5003,10/11.0/2020,2000,g  9.0,4.0
# From MPEC 2015-E14
7P/Pons-Winnecke,e,22.3637,93.3778,172.5813,3.414620,0.1562034,0.63851008,324.3702,10/11.0/2020,2000,g  9.0,4.0
# From MPEC 2020-SI8
8P/Tuttle,e,54.9117,270.2050,207.4902,5.704248,0.0723447,0.82011235,336.7945,10/11.0/2020,2000,g  8.0,8.0
# From MPEC 2019-JE2
9P/Tempel,e,10.4711,68.7307,179.3204,3.147272,0.1765236,0.50941864,269.9987,10/11.0/2020,2000,g  9.0,4.0
# From MPC114607
10P/Tempel,e,12.0398,117.8096,195.5188,3.060692,0.1840664,0.53852733,329.7583,10/11.0/2020,2000,g  5.0,10.0
# From MPEC 2017-L52
11P/Tempel-Swift-LINEAR,e,14.4205,238.9171,167.9441,3.282765,0.1657084,0.57694326,352.3404,10/11.0/2020,2000,g  9.0,4.0
# From  27, 604
12P/Pons-Brooks,e,74.0892,255.7248,199.0323,17.10047,0.0139377,0.95430777,342.0478,10/11.0/2020,2000,g  5.0,6.0
# From  27, 604
13P/Olbers,e,44.6259,85.8641,64.5250,16.68339,0.0144636,0.92971137,340.3373,10/11.0/2020,2000,g  5.0,6.0
# From MPC100283
14P/Wolf,e,27.9046,202.0724,158.9862,4.259084,0.1121321,0.35671056,117.0385,10/11.0/2020,2000,g  5.5,12.0
# From MPC 92276
15P/Finlay,e,6.7976,13.7219,347.8350,3.504492,0.1502334,0.71699487,318.6018,10/11.0/2020,2000,g 12.0,4.0
# From MPC 92276
16P/Brooks,e,3.0114,138.8693,245.1511,3.658436,0.1408513,0.48663701,333.3657,10/11.0/2020,2000,g  7.5,10.0
# From MPEC 2020-SI8
17P/Holmes,e,19.0298,326.6209,24.4770,3.638218,0.1420271,0.42812981,341.2753,10/11.0/2020,2000,g 10.0,6.0
# From MPC 92984
19P/Borrelly,e,29.3649,74.3744,351.8268,3.606355,0.1439134,0.63820985,291.1181,10/11.0/2020,2000,g  4.5,10.0
# From MPC111773
21P/Giacobini-Zinner,e,32.0181,195.3604,172.8487,3.495946,0.1507846,0.71072384,114.8312,10/11.0/2020,2000,g  9.0,6.0
# From MPC 94283
22P/Kopff,e,4.7420,120.8372,162.9699,3.442589,0.1543037,0.54888949,279.2960,10/11.0/2020,2000,g  3.0,10.4
# From MPC 14747
23P/Brorsen-Metcalf,e,19.1332,312.4193,128.8160,16.95377,0.0141190,0.97108371,0.0000,08/10.2058/1989,2000,g 10.0,6.0
# From MPC110085
24P/Schaumasse,e,11.6326,79.1759,57.8465,4.055743,0.1206697,0.70887672,127.7951,10/11.0/2020,2000,g  6.5,14.0
# From MPC 94674
26P/Grigg-Skjellerup,e,22.4415,211.5398,2.1923,3.013992,0.1883610,0.64056283,139.4687,10/11.0/2020,2000,g 12.0,16.0
# From MPC 78188
